LEMUR-2-CELIJO-SB-PK    
1 66781U 25276DW  26177.70911861  .00006207  00000+0  50213-3 0  9994
2 66781  97.5234 248.1738 0008158 109.6648 250.5457 15.00085304 24054
LEMUR-2-FINNIAN         
1 66782U 25276DX  26177.15007896  .00004553  00000+0  36599-3 0  9991
2 66782  97.5321 247.8587 0008626  63.2247 296.9859 15.00460441 21348
LEMUR-2-STARLIGHT       
1 66783U 25276DY  26177.71514764  .00006484  00000+0  53651-3 0  9994
2 66783  97.5247 248.0283 0014718 100.9513 259.3367 14.99142514 31620
LEMUR-2-TARTIFLETTE     
1 66784U 25276DZ  26177.71349135  .00005650  00000+0  46810-3 0  9996
2 66784  97.5249 248.0342 0013679 107.9765 252.2950 14.99153912 31624
LEMUR-2-VUKASIN         
1 66785U 25276EA  26177.69892325  .00001451  00000+0  11991-3 0  9995
2 66785  97.5292 248.3400 0005519 101.8604 258.3239 15.00424710 31571
LEMUR-2-HOTSPUR-TOM     
1 66786U 25276EB  26177.70671176  .00005675  00000+0  47128-3 0  9990
2 66786  97.5244 248.0069 0014759  99.9962 260.2928 14.99053783 31557
LEMUR-2-MYRA            
1 66787U 25276EC  26177.46425869  .00008094  00000+0  64675-3 0  9994
2 66787  97.5222 248.0408 0017656 111.5703 248.7405 15.00369877 31608
LEMUR-2 FIKRETDENGIZ    
1 67363U 26004A   26177.47925514  .00004628  00000+0  50473-3 0  9998
2 67363  97.8014 175.8944 0010580 107.0173 253.2203 14.88388061 24669
TWILIGHT-1 OBJECT B     
1 67364U 26004B   26177.70945727  .00001756  00000+0  19843-3 0  9998
2 67364  97.8063 176.1321 0010282  97.7645 262.4739 14.87732942 24706
LEMUR-2-MARIO-SOUSA     
1 67365U 26004C   26177.46167429  .00004522  00000+0  49098-3 0  9996
2 67365  97.7985 175.8728 0010120 108.0025 252.2295 14.88581950 24677
LEMUR-2-SONNENBLUME     
1 67367U 26004E   26177.25968137  .00003132  00000+0  34388-3 0  9992
2 67367  97.7984 175.6549 0009627 109.9063 250.3192 14.88359558 24648
LEMUR-2-WOBLER          
1 67368U 26004F   26177.72244448  .00003708  00000+0  40380-3 0  9995
2 67368  97.8035 176.2422 0009955  99.9016 260.3325 14.88576497 24714
LEMUR-2-GRAM-E-SUE      
1 67370U 26004H   26177.71344788  .00002139  00000+0  23587-3 0  9992
2 67370  97.7972 176.1173 0008721 109.8319 250.3839 14.88509765 24718
LEMUR-2-KATIE           
1 67387U 26004AA  26177.48914545  .00003625  00000+0  38064-3 0  9995
2 67387  97.8033 176.3860 0004737  74.1849 285.9891 14.90102051 24694
LEMUR-2-HCS-BAZUS       
1 67388U 26004AB  26177.48797940  .00005753  00000+0  59968-3 0  9994
2 67388  97.8021 176.3650 0004234  73.0669 287.1013 14.90155102 24694
